[{"OBJECT_NAME":"TECHDEMOSAT-1 (TDS-1)","OBJECT_ID":"2014-037H","EPOCH":"2026-03-09T22:08:12.399936","MEAN_MOTION":15.11581991,"ECCENTRICITY":0.0004745,"INCLINATION":98.3776,"RA_OF_ASC_NODE":51.4583,"ARG_OF_PERICENTER":234.81,"MEAN_ANOMALY":125.2683,"EPHEMERIS_TYPE":0,"CLASSIFICATION_TYPE":"U","NORAD_CAT_ID":40076,"ELEMENT_SET_NO":999,"REV_AT_EPOCH":63322,"BSTAR":0.00065800271,"MEAN_MOTION_DOT":0.00011104,"MEAN_MOTION_DDOT":0},{"OBJECT_NAME":"STARLINK-4029","OBJECT_ID":"2022-053AF","EPOCH":"2026-03-09T12:43:31.433088","MEAN_MOTION":15.08851341,"ECCENTRICITY":9.716e-5,"INCLINATION":53.2172,"RA_OF_ASC_NODE":144.8387,"ARG_OF_PERICENTER":77.1563,"MEAN_ANOMALY":282.9538,"EPHEMERIS_TYPE":0,"CLASSIFICATION_TYPE":"U","NORAD_CAT_ID":52685,"ELEMENT_SET_NO":999,"REV_AT_EPOCH":21109,"BSTAR":-0.00013095798,"MEAN_MOTION_DOT":-2.372e-5,"MEAN_MOTION_DDOT":0}]
